NORAD_CAT_ID,OBJECT_NAME,OBJECT_TYPE,EPOCH,MEAN_MOTION,ECCENTRICITY,INCLINATION,RA_OF_ASC_NODE,ARG_OF_PERICENTER,MEAN_ANOMALY,BSTAR,MEAN_MOTION_DOT,MEAN_MOTION_DDOT,TLE_LINE0,TLE_LINE1,TLE_LINE2,SEMIMAJOR_AXIS,PERIOD,APOGEE,PERIGEE,DECAYED
52477.0,STARLINK-3860,PAYLOAD,2024-07-30 04:17:51,15.08823593,0.0001462,53.218,166.5636,98.2112,261.9046,-5.3108e-06,-3.72e-06,0.0,0 STARLINK-3860,1 52477U 22049AC  24212.17906346 -.00000372  00000-0 -53108-5 0  9995,2 52477  53.2180 166.5636 0001462  98.2112 261.9046 15.08823593123856,6917.931,95.439,540.807,538.784,0.0
52477.0,STARLINK-3860,PAYLOAD,2024-07-30 13:50:08,15.08839794,0.0001313,53.2166,164.7751,87.6554,272.4588,9.1878e-05,1.175e-05,0.0,0 STARLINK-3860,1 52477U 22049AC  24212.57649093  .00001175  00000-0  91878-4 0  9997,2 52477  53.2166 164.7751 0001313  87.6554 272.4588 15.08839794124999,6917.881,95.438,540.654,538.838,0.0
52477.0,STARLINK-3860,PAYLOAD,2024-07-31 13:40:54,15.08854169,0.0001438,53.2174,160.3156,90.7206,269.3951,0.00012339,1.677e-05,0.0,0 STARLINK-3860,1 52477U 22049AC  24213.57007932  .00001677  00000-0  12339-3 0  9999,2 52477  53.2174 160.3156 0001438  90.7206 269.3951 15.08854169125146,6917.837,95.437,540.697,538.707,0.0
52477.0,STARLINK-3860,PAYLOAD,2024-07-31 20:02:29,15.08824614,0.00018,53.2188,159.1274,100.5193,259.6002,1.4064e-05,-6.4e-07,0.0,0 STARLINK-3860,1 52477U 22049AC  24213.83506297 -.00000064  00000-0  14064-4 0  9994,2 52477  53.2188 159.1274 0001800 100.5193 259.6002 15.08824614125181,6917.927,95.439,541.038,538.547,0.0
52477.0,STARLINK-3860,PAYLOAD,2024-08-01 03:59:24,15.08830326,0.0001498,53.2169,157.6397,94.5158,265.6005,2.1915e-05,6.1e-07,0.0,0 STARLINK-3860,1 52477U 22049AC  24214.16626018  .00000061  00000-0  21915-4 0  9994,2 52477  53.2169 157.6397 0001498  94.5158 265.6005 15.08830326124158,6917.91,95.438,540.811,538.739,0.0
52477.0,STARLINK-3860,PAYLOAD,2024-08-01 13:31:42,15.08848988,0.0001318,53.2166,155.8513,96.9192,263.195,5.7202e-05,6.23e-06,0.0,0 STARLINK-3860,1 52477U 22049AC  24214.56368595  .00000623  00000-0  57202-4 0  9993,2 52477  53.2166 155.8513 0001318  96.9192 263.1950 15.08848988125291,6917.853,95.437,540.63,538.806,0.0
52477.0,STARLINK-3860,PAYLOAD,2024-08-02 02:14:48,15.08839354,0.0001462,53.2178,153.4754,105.9161,254.1993,-1.9855e-05,-6.04e-06,0.0,0 STARLINK-3860,1 52477U 22049AC  24215.09361419 -.00000604  00000-0 -19855-4 0  9993,2 52477  53.2178 153.4754 0001462 105.9161 254.1993 15.08839354124295,6917.882,95.438,540.759,538.736,0.0
52477.0,STARLINK-3860,PAYLOAD,2024-08-02 13:22:29,15.08849416,0.0001593,53.2183,151.3928,105.9726,254.1442,-4.3446e-06,-3.57e-06,0.0,0 STARLINK-3860,1 52477U 22049AC  24215.55728612 -.00000357  00000-0 -43446-5 0  9995,2 52477  53.2183 151.3928 0001593 105.9726 254.1442 15.08849416124360,6917.852,95.437,540.819,538.615,0.0
52477.0,STARLINK-3860,PAYLOAD,2024-08-03 02:05:35,15.0882304,0.0001373,53.2171,149.0116,102.1448,257.9698,-0.00011421,-2.104e-05,0.0,0 STARLINK-3860,1 52477U 22049AC  24216.08722138 -.00002104  00000-0 -11421-3 0  9999,2 52477  53.2171 149.0116 0001373 102.1448 257.9698 15.08823040124444,6917.932,95.439,540.747,538.847,0.0
52477.0,STARLINK-3860,PAYLOAD,2024-08-03 19:34:50,15.08823455,0.000132,53.217,145.7412,100.2423,259.8718,-2.7774e-05,-7.3e-06,0.0,0 STARLINK-3860,1 52477U 22049AC  24216.81586229 -.00000730  00000-0 -27774-4 0  9991,2 52477  53.2170 145.7412 0001320 100.2423 259.8718 15.08823455124555,6917.931,95.439,540.709,538.883,0.0
52477.0,STARLINK-3860,PAYLOAD,2024-08-03 22:45:36,15.08825818,0.0001238,53.2166,145.1531,81.3907,278.7226,1.4091e-05,-6.4e-07,0.0,0 STARLINK-3860,1 52477U 22049AC  24216.94834133 -.00000064  00000-0  14091-4 0  9992,2 52477  53.2166 145.1531 0001238  81.3907 278.7226 15.08825818125651,6917.924,95.438,540.645,538.932,0.0
52477.0,STARLINK-3860,PAYLOAD,2024-08-04 05:07:08,15.08840328,0.0001407,53.2175,143.958,102.4966,257.6183,6.1735e-06,-1.9e-06,0.0,0 STARLINK-3860,1 52477U 22049AC  24217.21329315 -.00000190  00000-0  61735-5 0  9992,2 52477  53.2175 143.9580 0001407 102.4966 257.6183 15.08840328124615,6917.879,95.438,540.718,538.771,0.0
52477.0,STARLINK-3860,PAYLOAD,2024-08-04 22:36:20,15.08915715,0.000134,53.2174,140.6868,86.4046,273.7099,-0.001063,-0.00017201,0.0,0 STARLINK-3860,1 52477U 22049AC  24217.94190201 -.00017201  00000-0 -10630-2 0  9999,2 52477  53.2174 140.6868 0001340  86.4046 273.7099 15.08915715125803,6917.649,95.433,540.441,538.587,0.0
52477.0,STARLINK-3860,PAYLOAD,2024-08-05 22:27:11,15.08825742,0.0001174,53.2162,136.2271,94.8977,265.2149,-4.8514e-05,-1.06e-05,0.0,0 STARLINK-3860,1 52477U 22049AC  24218.93554777 -.00001060  00000-0 -48514-4 0  9991,2 52477  53.2162 136.2271 0001174  94.8977 265.2149 15.08825742125958,6917.924,95.438,540.601,538.977,0.0
52477.0,STARLINK-3860,PAYLOAD,2024-08-06 04:48:44,15.08808478,0.0001287,53.216,135.0381,49.3828,310.7276,-0.00026683,-4.528e-05,0.0,0 STARLINK-3860,1 52477U 22049AC  24219.20052057 -.00004528  00000-0 -26683-3 0  9990,2 52477  53.2160 135.0381 0001287  49.3828 310.7276 15.08808478124919,6917.977,95.44,540.732,538.951,0.0
52477.0,STARLINK-3860,PAYLOAD,2024-08-06 22:17:58,15.08837781,0.0001175,53.2147,131.7625,33.7228,326.3839,9.6294e-06,-1.35e-06,0.0,0 STARLINK-3860,1 52477U 22049AC  24219.92914940 -.00000135  00000-0  96294-5 0  9993,2 52477  53.2147 131.7625 0001175  33.7228 326.3839 15.08837781126105,6917.887,95.438,540.565,538.939,0.0
52477.0,STARLINK-3860,PAYLOAD,2024-08-06 23:53:21,15.08846064,0.0001355,53.2163,131.4748,78.6573,281.4571,0.00017394,2.482e-05,0.0,0 STARLINK-3860,1 52477U 22049AC  24219.99538689  .00002482  00000-0  17394-3 0  9990,2 52477  53.2163 131.4748 0001355  78.6573 281.4571 15.08846064125036,6917.862,95.437,540.664,538.789,0.0
52477.0,STARLINK-3860,PAYLOAD,2024-08-08 02:54:54,15.08847141,0.0001454,53.217,126.4181,71.4982,288.6168,0.00043159,6.589e-05,0.0,0 STARLINK-3860,1 52477U 22049AC  24221.12146827  .00006589  00000-0  43159-3 0  9997,2 52477  53.2170 126.4181 0001454  71.4982 288.6168 15.08847141126280,6917.859,95.437,540.729,538.718,0.0
52477.0,STARLINK-3860,PAYLOAD,2024-08-08 21:59:33,15.08829917,0.0001271,53.2167,122.8462,79.7266,280.3869,0.00045664,6.985e-05,0.0,0 STARLINK-3860,1 52477U 22049AC  24221.91635514  .00006985  00000-0  45664-3 0  9993,2 52477  53.2167 122.8462 0001271  79.7266 280.3869 15.08829917125323,6917.911,95.438,540.655,538.897,0.0
52477.0,STARLINK-3860,PAYLOAD,2024-08-08 23:34:55,15.08848114,9.37e-05,53.2141,122.5487,85.556,274.5539,-8.0563e-06,-4.16e-06,0.0,0 STARLINK-3860,1 52477U 22049AC  24221.98258548 -.00000416  00000-0 -80563-5 0  9992,2 52477  53.2141 122.5487 0000937  85.5560 274.5539 15.08848114126419,6917.856,95.437,540.369,539.072,0.0
52477.0,STARLINK-3860,PAYLOAD,2024-08-09 01:10:18,15.08857567,0.0001102,53.2147,122.2544,83.4968,276.615,-2.6057e-05,-7.03e-06,0.0,0 STARLINK-3860,1 52477U 22049AC  24222.04882075 -.00000703  00000-0 -26057-4 0  9994,2 52477  53.2147 122.2544 0001102  83.4968 276.6150 15.08857567125345,6917.827,95.436,540.454,538.929,0.0
52477.0,STARLINK-3860,PAYLOAD,2024-08-09 10:42:35,15.08868114,0.0001175,53.2144,120.4677,92.6301,267.4826,0.00013119,1.802e-05,0.0,0 STARLINK-3860,1 52477U 22049AC  24222.44624423  .00001802  00000-0  13119-3 0  9992,2 52477  53.2144 120.4677 0001175  92.6301 267.4826 15.08868114125407,6917.794,95.436,540.472,538.847,0.0
52477.0,STARLINK-3860,PAYLOAD,2024-08-09 17:04:10,15.08831021,0.0001571,53.2141,119.2788,92.3009,267.8162,-3.673e-05,-8.72e-06,0.0,0 STARLINK-3860,1 52477U 22049AC  24222.71123056 -.00000872  00000-0 -36730-4 0  9991,2 52477  53.2141 119.2788 0001571  92.3009 267.8162 15.08831021125443,6917.908,95.438,540.86,538.686,0.0
52477.0,STARLINK-3860,PAYLOAD,2024-08-09 21:50:19,15.08834135,0.000144,53.2154,118.3911,73.9392,286.1759,-0.00012916,-2.343e-05,0.0,0 STARLINK-3860,1 52477U 22049AC  24222.90995326 -.00002343  00000-0 -12916-3 0  9993,2 52477  53.2154 118.3911 0001440  73.9392 286.1759 15.08834135126558,6917.898,95.438,540.759,538.767,0.0
52477.0,STARLINK-3860,PAYLOAD,2024-08-10 02:36:28,15.08843106,0.0001086,53.2165,117.4905,115.6504,244.4601,7.145e-05,8.5e-06,0.0,0 STARLINK-3860,1 52477U 22049AC  24223.10865944  .00000850  00000-0  71450-4 0  9996,2 52477  53.2165 117.4905 0001086 115.6504 244.4601 15.08843106125503,6917.871,95.437,540.487,538.985,0.0
52477.0,STARLINK-3860,PAYLOAD,2024-08-10 21:41:05,15.08845207,0.0001553,53.2184,113.923,134.8909,225.221,-1.9918e-05,-6.05e-06,0.0,0 STARLINK-3860,1 52477U 22049AC  24223.90354062 -.00000605  00000-0 -19918-4 0  9999,2 52477  53.2184 113.9230 0001553 134.8909 225.2210 15.08845207126707,6917.864,95.437,540.804,538.655,0.0
52477.0,STARLINK-3860,PAYLOAD,2024-08-11 16:45:43,15.08826458,0.0001093,53.2174,110.3525,105.8998,254.2115,0.00032223,4.842e-05,0.0,0 STARLINK-3860,1 52477U 22049AC  24224.69842452  .00004842  00000-0  32223-3 0  9999,2 52477  53.2174 110.3525 0001093 105.8998 254.2115 15.08826458125745,6917.922,95.438,540.543,539.031,0.0
52477.0,STARLINK-3860,PAYLOAD,2024-08-11 21:31:53,15.0883154,0.0001155,53.217,109.4596,100.7352,259.377,0.00032428,4.876e-05,0.0,0 STARLINK-3860,1 52477U 22049AC  24224.89714933  .00004876  00000-0  32428-3 0  9997,2 52477  53.2170 109.4596 0001155 100.7352 259.3770 15.08831540126859,6917.906,95.438,540.57,538.972,0.0
52477.0,STARLINK-3860,PAYLOAD,2024-08-12 02:18:02,15.08841293,0.0001264,53.218,108.5707,111.113,248.9997,8.8384e-05,1.119e-05,0.0,0 STARLINK-3860,1 52477U 22049AC  24225.09586219  .00001119  00000-0  88384-4 0  9994,2 52477  53.2180 108.5707 0001264 111.1130 248.9997 15.08841293125800,6917.876,95.437,540.616,538.867,0.0
52477.0,STARLINK-3860,PAYLOAD,2024-08-12 21:22:38,15.08859885,0.000125,53.217,105.0036,109.1248,250.988,0.00019532,2.824e-05,0.0,0 STARLINK-3860,1 52477U 22049AC  24225.89072632  .00002824  00000-0  19532-3 0  9993,2 52477  53.2170 105.0036 0001250 109.1248 250.9880 15.08859885125921,6917.82,95.436,540.549,538.82,0.0
